$$SOE
2461302.500000000, A.D. 2026-Sep-19 00:00:00.0000, -3.529250288908137E+08, 3.006393010739624E+08, -1.308794927084804E+06,
2461309.500000000, A.D. 2026-Sep-26 00:00:00.0000, -3.593761284098866E+08, 2.924613112067630E+08, -7.187038672811091E+05,
2461316.500000000, A.D. 2026-Oct-03 00:00:00.0000, -3.656519991360204E+08, 2.841408915354103E+08, -1.282513533723354E+05,
2461323.500000000, A.D. 2026-Oct-10 00:00:00.0000, -3.717492646591820E+08, 2.756818548520190E+08, 4.622738806210309E+05,
2461330.500000000, A.D. 2026-Oct-17 00:00:00.0000, -3.776646352444429E+08, 2.670881030767803E+08, 1.052582075531334E+06,
2461337.500000000, A.D. 2026-Oct-24 00:00:00.0000, -3.833949106746392E+08, 2.583636251468202E+08, 1.642382637349933E+06,
2461344.500000000, A.D. 2026-Oct-31 00:00:00.0000, -3.889369829458503E+08, 2.495124946391273E+08, 2.231384307878479E+06,
2461351.500000000, A.D. 2026-Nov-07 00:00:00.0000, -3.942878384721072E+08, 2.405388672030499E+08, 2.819295290632918E+06,
2461358.500000000, A.D. 2026-Nov-14 00:00:00.0000, -3.994445595940382E+08, 2.314469786911746E+08, 3.405823386084959E+06,
2461365.500000000, A.D. 2026-Nov-21 00:00:00.0000, -4.044043271998311E+08, 2.222411446721809E+08, 3.990676358073518E+06,
2461372.500000000, A.D. 2026-Nov-28 00:00:00.0000, -4.091644254540320E+08, 2.129257583209589E+08, 4.573562376986593E+06,
2461379.500000000, A.D. 2026-Dec-05 00:00:00.0000, -4.137222450095780E+08, 2.035052860332319E+08, 5.154190154228598E+06,
2461386.500000000, A.D. 2026-Dec-12 00:00:00.0000, -4.180752845325193E+08, 1.939842638768483E+08, 5.732269007314131E+06,
2461393.500000000, A.D. 2026-Dec-19 00:00:00.0000, -4.222211524244199E+08, 1.843672948881985E+08, 6.307509029119037E+06,
2461400.500000000, A.D. 2026-Dec-26 00:00:00.0000, -4.261575688829175E+08, 1.746590463500464E+08, 6.879621303241841E+06,
2461407.500000000, A.D. 2027-Jan-02 00:00:00.0000, -4.298823680213252E+08, 1.648642468644274E+08, 7.448318124492563E+06,
2461414.500000000, A.D. 2027-Jan-09 00:00:00.0000, -4.333934999265080E+08, 1.549876832448967E+08, 8.013313215357438E+06,
2461421.500000000, A.D. 2027-Jan-16 00:00:00.0000, -4.366890326158229E+08, 1.450341972406133E+08, 8.574321935807168E+06,
2461428.500000000, A.D. 2027-Jan-23 00:00:00.0000, -4.397671538436089E+08, 1.350086820556119E+08, 9.131061478822336E+06,
2461435.500000000, A.D. 2027-Jan-30 00:00:00.0000, -4.426261725670548E+08, 1.249160786178928E+08, 9.683251030259520E+06,
2461442.500000000, A.D. 2027-Feb-06 00:00:00.0000, -4.452645196458785E+08, 1.147613719408931E+08, 1.023061188153036E+07,
2461449.500000000, A.D. 2027-Feb-13 00:00:00.0000, -4.476807482366883E+08, 1.045495888003829E+08, 1.077286763652831E+07,
2461456.500000000, A.D. 2027-Feb-20 00:00:00.0000, -4.498735362476506E+08, 9.428579594049048E+07, 1.130974466439015E+07,
2461463.500000000, A.D. 2027-Feb-27 00:00:00.0000, -4.518416894591128E+08, 8.397509560204956E+07, 1.184097240688623E+07,
2461470.500000000, A.D. 2027-Mar-06 00:00:00.0000, -4.535841422895730E+08, 7.362262030327043E+07, 1.236628342039548E+07,
2461477.500000000, A.D. 2027-Mar-13 00:00:00.0000, -4.550999578025909E+08, 6.323352892703068E+07, 1.288541346632566E+07,
2461484.500000000, A.D. 2027-Mar-20 00:00:00.0000, -4.563883280817926E+08, 5.281300328389852E+07, 1.339810168477365E+07,
2461491.500000000, A.D. 2027-Mar-27 00:00:00.0000, -4.574485747709621E+08, 4.236624460658711E+07, 1.390409078751714E+07,
2461498.500000000, A.D. 2027-Apr-03 00:00:00.0000, -4.582801495751097E+08, 3.189846993296853E+07, 1.440312724744404E+07,
2461505.500000000, A.D. 2027-Apr-10 00:00:00.0000, -4.588826346603411E+08, 2.141490840534724E+07, 1.489496148038596E+07,
2461512.500000000, A.D. 2027-Apr-17 00:00:00.0000, -4.592557429302217E+08, 1.092079747640748E+07, 1.537934801590857E+07,
2461519.500000000, A.D. 2027-Apr-24 00:00:00.0000, -4.593993180997148E+08, 4.213789647527384E+05, 1.585604564450151E+07,
2461526.500000000, A.D. 2027-May-01 00:00:00.0000, -4.593133342674881E+08, -1.007810500670816E+07, 1.632481751577924E+07,
2461533.500000000, A.D. 2027-May-08 00:00:00.0000, -4.589978946793761E+08, -2.057241543556795E+07, 1.678543122048628E+07,
2461540.500000000, A.D. 2027-May-15 00:00:00.0000, -4.584532311799670E+08, -3.105631826931506E+07, 1.723765907129961E+07,
2461547.500000000, A.D. 2027-May-22 00:00:00.0000, -4.576797059176011E+08, -4.152458722624515E+07, 1.768127851381703E+07,
2461554.500000000, A.D. 2027-May-29 00:00:00.0000, -4.566778119494138E+08, -5.197200907053459E+07, 1.811607223985885E+07,
2461561.500000000, A.D. 2027-Jun-05 00:00:00.0000, -4.554481718619741E+08, -6.239338820326893E+07, 1.854182817790228E+07,
2461568.500000000, A.D. 2027-Jun-12 00:00:00.0000, -4.539915364143128E+08, -7.278355013266703E+07, 1.895833957997084E+07,
2461575.500000000, A.D. 2027-Jun-19 00:00:00.0000, -4.523087835356357E+08, -8.313734475471893E+07, 1.936540515877958E+07,
2461582.500000000, A.D. 2027-Jun-26 00:00:00.0000, -4.504009174010789E+08, -9.344964970125686E+07, 1.976282922813429E+07,
2461589.500000000, A.D. 2027-Jul-03 00:00:00.0000, -4.482690674560384E+08, -1.037153737423131E+08, 2.015042183525195E+07,
2461596.500000000, A.D. 2027-Jul-10 00:00:00.0000, -4.459144873545514E+08, -1.139294602292828E+08, 2.052799888248156E+07,
2461603.500000000, A.D. 2027-Jul-17 00:00:00.0000, -4.433385537777476E+08, -1.240868906133097E+08, 2.089538223207140E+07,
2461610.500000000, A.D. 2027-Jul-24 00:00:00.0000, -4.405427649785482E+08, -1.341826880974871E+08, 2.125239977465526E+07,
2461617.500000000, A.D. 2027-Jul-31 00:00:00.0000, -4.375287386439574E+08, -1.442119211832621E+08, 2.159888544312009E+07,
2461624.500000000, A.D. 2027-Aug-07 00:00:00.0000, -4.342982092783258E+08, -1.541697059553674E+08, 2.193467928448074E+07,
2461631.500000000, A.D. 2027-Aug-14 00:00:00.0000, -4.308530274114482E+08, -1.640512073553255E+08, 2.225962778008860E+07,
2461638.500000000, A.D. 2027-Aug-21 00:00:00.0000, -4.271951600176402E+08, -1.738516428053360E+08, 2.257358408249483E+07,
2461645.500000000, A.D. 2027-Aug-28 00:00:00.0000, -4.233266887202574E+08, -1.835662869762120E+08, 2.287640795271360E+07,
2461652.500000000, A.D. 2027-Sep-04 00:00:00.0000, -4.192498069667930E+08, -1.931904751926880E+08, 2.316796571074441E+07,
2461659.500000000, A.D. 2027-Sep-11 00:00:00.0000, -4.149668175726539E+08, -2.027196061335151E+08, 2.344813027307248E+07,
2461666.500000000, A.D. 2027-Sep-18 00:00:00.0000, -4.104801305037687E+08, -2.121491444733810E+08, 2.371678121147766E+07,
2461673.500000000, A.D. 2027-Sep-25 00:00:00.0000, -4.057922606729328E+08, -2.214746235409289E+08, 2.397380480552706E+07,
2461680.500000000, A.D. 2027-Oct-02 00:00:00.0000, -4.009058256779484E+08, -2.306916479617271E+08, 2.421909408383647E+07,
2461687.500000000, A.D. 2027-Oct-09 00:00:00.0000, -3.958235434615244E+08, -2.397958962878878E+08, 2.445254885135116E+07,
2461694.500000000, A.D. 2027-Oct-16 00:00:00.0000, -3.905482298326569E+08, -2.487831236678190E+08, 2.467407569208169E+07,
2461701.500000000, A.D. 2027-Oct-23 00:00:00.0000, -3.850827955939145E+08, -2.576491645612986E+08, 2.488358792285132E+07,
2461708.500000000, A.D. 2027-Oct-30 00:00:00.0000, -3.794302429053550E+08, -2.663899348888143E+08, 2.508100551358956E+07,
2461715.500000000, A.D. 2027-Nov-06 00:00:00.0000, -3.735936620538198E+08, -2.750014324855052E+08, 2.526625517315009E+07,
2461722.500000000, A.D. 2027-Nov-13 00:00:00.0000, -3.675762306176892E+08, -2.834797379344784E+08, 2.543927061310148E+07,
2461729.500000000, A.D. 2027-Nov-20 00:00:00.0000, -3.613812121304232E+08, -2.918210179648515E+08, 2.559999254484987E+07,
2461736.500000000, A.D. 2027-Nov-27 00:00:00.0000, -3.550119526307238E+08, -3.000215284490638E+08, 2.574836850432569E+07,
2461743.500000000, A.D. 2027-Dec-04 00:00:00.0000, -3.484718771268757E+08, -3.080776160836812E+08, 2.588435276475294E+07,
2461750.500000000, A.D. 2027-Dec-11 00:00:00.0000, -3.417644865288212E+08, -3.159857197163268E+08, 2.600790630930120E+07,
2461757.500000000, A.D. 2027-Dec-18 00:00:00.0000, -3.348933547761171E+08, -3.237423716576903E+08, 2.611899681075189E+07,
2461764.500000000, A.D. 2027-Dec-25 00:00:00.0000, -3.278621260136440E+08, -3.313441989813868E+08, 2.621759860422963E+07,
2461771.500000000, A.D. 2028-Jan-01 00:00:00.0000, -3.206745117779978E+08, -3.387879247977562E+08, 2.630369265068525E+07,
$$EOE